ONEWEB-0171             
1 48070U 21025AE  25223.88961000  .00000324  00000+0  85142-3 0  9996
2 48070  87.8979  21.6926 0001750  90.2752 269.8577 13.13469792213019
ONEWEB-0172             
1 48071U 21025AF  25223.94546041 -.00000070  00000+0 -22744-3 0  9997
2 48071  87.8982  21.6481 0001656  90.5001 269.6318 13.13471272213911
ONEWEB-0174             
1 48072U 21025AG  25223.92685710 -.00000306  00000+0 -87327-3 0  9993
2 48072  87.8981  21.6652 0001715  98.3742 261.7582 13.13467542213231
ONEWEB-0175             
1 48073U 21025AH  25223.88113828  .00000175  00000+0  44323-3 0  9996
2 48073  87.8979  21.6388 0001571  81.0057 279.1250 13.13470560212882
ONEWEB-0177             
1 48074U 21025AJ  25223.89298489  .00000315  00000+0  82803-3 0  9996
2 48074  87.8984  21.6519 0001610  98.2724 261.8588 13.13469629213078
ONEWEB-0178             
1 48075U 21025AK  25223.91173205 -.00000072  00000+0 -23095-3 0  9998
2 48075  87.8984  21.6937 0001548  86.0983 274.0323 13.13470553213122
ONEWEB-0108             
1 48076U 21025AL  25223.94715885 -.00000057  00000+0 -19060-3 0  9998
2 48076  87.8979  21.6348 0001984  98.0381 262.0973 13.13470037213059
ONEWEB-0169             
1 48077U 21025AM  25223.90314861  .00000152  00000+0  38017-3 0  9991
2 48077  87.8983  21.6654 0001960  98.1089 262.0263 13.13469846211703
ONEWEB-0176             
1 48210U 21031A   25223.91242641 -.00000187  00000+0 -53825-3 0  9998
2 48210  87.9075 351.2494 0001759  94.0631 266.0700 13.14501377207682
ONEWEB-0184             
1 48211U 21031B   25224.41829548  .00000304  00000+0  78563-3 0  9997
2 48211  87.9080 351.1187 0001619  68.7291 291.4012 13.14503078207725
ONEWEB-0179             
1 48212U 21031C   25223.85612675 -.00000194  00000+0 -55797-3 0  9999
2 48212  87.9076 351.2483 0001774 100.9574 259.1756 13.14502749207692
ONEWEB-0180             
1 48213U 21031D   25223.88865250  .00000270  00000+0  69479-3 0  9997
2 48213  87.9081 351.2289 0001508  98.2437 261.8864 13.14502870207588
ONEWEB-0218             
1 48214U 21031E   25223.91083205 -.00000149  00000+0 -43681-3 0  9998
2 48214  87.9082 351.2253 0001379  67.5624 292.5651 13.14501153207740
ONEWEB-0209             
1 48215U 21031F   25224.35644165  .00000152  00000+0  37601-3 0  9993
2 48215  87.9086 351.1813 0001706 102.3703 257.7618 13.14501488207800
ONEWEB-0198             
1 48216U 21031G   25223.88389964  .00000277  00000+0  71304-3 0  9990
2 48216  87.9078 351.2757 0001404  92.7473 267.3817 13.14503823207859
ONEWEB-0189             
1 48217U 21031H   25224.04881453  .00000137  00000+0  33587-3 0  9996
2 48217  87.9077 351.2165 0001443  93.2279 266.9016 13.14502567207619
ONEWEB-0196             
1 48218U 21031J   25224.40720513  .00000205  00000+0  51744-3 0  9997
2 48218  87.9081 351.1586 0001666  98.8464 261.2855 13.14503304207658
