[{"OBJECT_NAME":"ONEWEB-0171","OBJECT_ID":"2021-025AE","EPOCH":"2025-08-11T21:21:02.304000","MEAN_MOTION":13.13469792,"ECCENTRICITY":0.000175,"INCLINATION":87.8979,"RA_OF_ASC_NODE":21.6926,"ARG_OF_PERICENTER":90.2752,"MEAN_ANOMALY":269.8577,"EPHEMERIS_TYPE":0,"CLASSIFICATION_TYPE":"U","NORAD_CAT_ID":48070,"ELEMENT_SET_NO":999,"REV_AT_EPOCH":21301,"BSTAR":0.00085142,"MEAN_MOTION_DOT":3.24e-6,"MEAN_MOTION_DDOT":0},{"OBJECT_NAME":"ONEWEB-0172","OBJECT_ID":"2021-025AF","EPOCH":"2025-08-11T22:41:27.779424","MEAN_MOTION":13.13471272,"ECCENTRICITY":0.0001656,"INCLINATION":87.8982,"RA_OF_ASC_NODE":21.6481,"ARG_OF_PERICENTER":90.5001,"MEAN_ANOMALY":269.6318,"EPHEMERIS_TYPE":0,"CLASSIFICATION_TYPE":"U","NORAD_CAT_ID":48071,"ELEMENT_SET_NO":999,"REV_AT_EPOCH":21391,"BSTAR":-0.00022744,"MEAN_MOTION_DOT":-7.0e-7,"MEAN_MOTION_DDOT":0},{"OBJECT_NAME":"ONEWEB-0174","OBJECT_ID":"2021-025AG","EPOCH":"2025-08-11T22:14:40.453440","MEAN_MOTION":13.13467542,"ECCENTRICITY":0.0001715,"INCLINATION":87.8981,"RA_OF_ASC_NODE":21.6652,"ARG_OF_PERICENTER":98.3742,"MEAN_ANOMALY":261.7582,"EPHEMERIS_TYPE":0,"CLASSIFICATION_TYPE":"U","NORAD_CAT_ID":48072,"ELEMENT_SET_NO":999,"REV_AT_EPOCH":21323,"BSTAR":-0.00087327,"MEAN_MOTION_DOT":-3.06e-6,"MEAN_MOTION_DDOT":0},{"OBJECT_NAME":"ONEWEB-0175","OBJECT_ID":"2021-025AH","EPOCH":"2025-08-11T21:08:50.347392","MEAN_MOTION":13.1347056,"ECCENTRICITY":0.0001571,"INCLINATION":87.8979,"RA_OF_ASC_NODE":21.6388,"ARG_OF_PERICENTER":81.0057,"MEAN_ANOMALY":279.125,"EPHEMERIS_TYPE":0,"CLASSIFICATION_TYPE":"U","NORAD_CAT_ID":48073,"ELEMENT_SET_NO":999,"REV_AT_EPOCH":21288,"BSTAR":0.00044323,"MEAN_MOTION_DOT":1.75e-6,"MEAN_MOTION_DDOT":0},{"OBJECT_NAME":"ONEWEB-0177","OBJECT_ID":"2021-025AJ","EPOCH":"2025-08-11T21:25:53.894496","MEAN_MOTION":13.13469629,"ECCENTRICITY":0.000161,"INCLINATION":87.8984,"RA_OF_ASC_NODE":21.6519,"ARG_OF_PERICENTER":98.2724,"MEAN_ANOMALY":261.8588,"EPHEMERIS_TYPE":0,"CLASSIFICATION_TYPE":"U","NORAD_CAT_ID":48074,"ELEMENT_SET_NO":999,"REV_AT_EPOCH":21307,"BSTAR":0.00082803,"MEAN_MOTION_DOT":3.15e-6,"MEAN_MOTION_DDOT":0},{"OBJECT_NAME":"ONEWEB-0178","OBJECT_ID":"2021-025AK","EPOCH":"2025-08-11T21:52:53.649120","MEAN_MOTION":13.13470553,"ECCENTRICITY":0.0001548,"INCLINATION":87.8984,"RA_OF_ASC_NODE":21.6937,"ARG_OF_PERICENTER":86.0983,"MEAN_ANOMALY":274.0323,"EPHEMERIS_TYPE":0,"CLASSIFICATION_TYPE":"U","NORAD_CAT_ID":48075,"ELEMENT_SET_NO":999,"REV_AT_EPOCH":21312,"BSTAR":-0.00023095,"MEAN_MOTION_DOT":-7.2e-7,"MEAN_MOTION_DDOT":0},{"OBJECT_NAME":"ONEWEB-0108","OBJECT_ID":"2021-025AL","EPOCH":"2025-08-11T22:43:54.524640","MEAN_MOTION":13.13470037,"ECCENTRICITY":0.0001984,"INCLINATION":87.8979,"RA_OF_ASC_NODE":21.6348,"ARG_OF_PERICENTER":98.0381,"MEAN_ANOMALY":262.0973,"EPHEMERIS_TYPE":0,"CLASSIFICATION_TYPE":"U","NORAD_CAT_ID":48076,"ELEMENT_SET_NO":999,"REV_AT_EPOCH":21305,"BSTAR":-0.0001906,"MEAN_MOTION_DOT":-5.7e-7,"MEAN_MOTION_DDOT":0},{"OBJECT_NAME":"ONEWEB-0169","OBJECT_ID":"2021-025AM","EPOCH":"2025-08-11T21:40:32.039904","MEAN_MOTION":13.13469846,"ECCENTRICITY":0.000196,"INCLINATION":87.8983,"RA_OF_ASC_NODE":21.6654,"ARG_OF_PERICENTER":98.1089,"MEAN_ANOMALY":262.0263,"EPHEMERIS_TYPE":0,"CLASSIFICATION_TYPE":"U","NORAD_CAT_ID":48077,"ELEMENT_SET_NO":999,"REV_AT_EPOCH":21170,"BSTAR":0.00038017,"MEAN_MOTION_DOT":1.52e-6,"MEAN_MOTION_DDOT":0},{"OBJECT_NAME":"ONEWEB-0176","OBJECT_ID":"2021-031A","EPOCH":"2025-08-11T21:53:53.641824","MEAN_MOTION":13.14501377,"ECCENTRICITY":0.0001759,"INCLINATION":87.9075,"RA_OF_ASC_NODE":351.2494,"ARG_OF_PERICENTER":94.0631,"MEAN_ANOMALY":266.07,"EPHEMERIS_TYPE":0,"CLASSIFICATION_TYPE":"U","NORAD_CAT_ID":48210,"ELEMENT_SET_NO":999,"REV_AT_EPOCH":20768,"BSTAR":-0.00053825,"MEAN_MOTION_DOT":-1.87e-6,"MEAN_MOTION_DDOT":0},{"OBJECT_NAME":"ONEWEB-0184","OBJECT_ID":"2021-031B","EPOCH":"2025-08-12T10:02:20.729472","MEAN_MOTION":13.14503078,"ECCENTRICITY":0.0001619,"INCLINATION":87.908,"RA_OF_ASC_NODE":351.1187,"ARG_OF_PERICENTER":68.7291,"MEAN_ANOMALY":291.4012,"EPHEMERIS_TYPE":0,"CLASSIFICATION_TYPE":"U","NORAD_CAT_ID":48211,"ELEMENT_SET_NO":999,"REV_AT_EPOCH":20772,"BSTAR":0.00078563,"MEAN_MOTION_DOT":3.04e-6,"MEAN_MOTION_DDOT":0},{"OBJECT_NAME":"ONEWEB-0179","OBJECT_ID":"2021-031C","EPOCH":"2025-08-11T20:32:49.351200","MEAN_MOTION":13.14502749,"ECCENTRICITY":0.0001774,"INCLINATION":87.9076,"RA_OF_ASC_NODE":351.2483,"ARG_OF_PERICENTER":100.9574,"MEAN_ANOMALY":259.1756,"EPHEMERIS_TYPE":0,"CLASSIFICATION_TYPE":"U","NORAD_CAT_ID":48212,"ELEMENT_SET_NO":999,"REV_AT_EPOCH":20769,"BSTAR":-0.00055797,"MEAN_MOTION_DOT":-1.94e-6,"MEAN_MOTION_DDOT":0},{"OBJECT_NAME":"ONEWEB-0180","OBJECT_ID":"2021-031D","EPOCH":"2025-08-11T21:19:39.576000","MEAN_MOTION":13.1450287,"ECCENTRICITY":0.0001508,"INCLINATION":87.9081,"RA_OF_ASC_NODE":351.2289,"ARG_OF_PERICENTER":98.2437,"MEAN_ANOMALY":261.8864,"EPHEMERIS_TYPE":0,"CLASSIFICATION_TYPE":"U","NORAD_CAT_ID":48213,"ELEMENT_SET_NO":999,"REV_AT_EPOCH":20758,"BSTAR":0.00069479,"MEAN_MOTION_DOT":2.7e-6,"MEAN_MOTION_DDOT":0},{"OBJECT_NAME":"ONEWEB-0218","OBJECT_ID":"2021-031E","EPOCH":"2025-08-11T21:51:35.889120","MEAN_MOTION":13.14501153,"ECCENTRICITY":0.0001379,"INCLINATION":87.9082,"RA_OF_ASC_NODE":351.2253,"ARG_OF_PERICENTER":67.5624,"MEAN_ANOMALY":292.5651,"EPHEMERIS_TYPE":0,"CLASSIFICATION_TYPE":"U","NORAD_CAT_ID":48214,"ELEMENT_SET_NO":999,"REV_AT_EPOCH":20774,"BSTAR":-0.00043681,"MEAN_MOTION_DOT":-1.49e-6,"MEAN_MOTION_DDOT":0},{"OBJECT_NAME":"ONEWEB-0209","OBJECT_ID":"2021-031F","EPOCH":"2025-08-12T08:33:16.558560","MEAN_MOTION":13.14501488,"ECCENTRICITY":0.0001706,"INCLINATION":87.9086,"RA_OF_ASC_NODE":351.1813,"ARG_OF_PERICENTER":102.3703,"MEAN_ANOMALY":257.7618,"EPHEMERIS_TYPE":0,"CLASSIFICATION_TYPE":"U","NORAD_CAT_ID":48215,"ELEMENT_SET_NO":999,"REV_AT_EPOCH":20780,"BSTAR":0.00037601,"MEAN_MOTION_DOT":1.52e-6,"MEAN_MOTION_DDOT":0},{"OBJECT_NAME":"ONEWEB-0198","OBJECT_ID":"2021-031G","EPOCH":"2025-08-11T21:12:48.928896","MEAN_MOTION":13.14503823,"ECCENTRICITY":0.0001404,"INCLINATION":87.9078,"RA_OF_ASC_NODE":351.2757,"ARG_OF_PERICENTER":92.7473,"MEAN_ANOMALY":267.3817,"EPHEMERIS_TYPE":0,"CLASSIFICATION_TYPE":"U","NORAD_CAT_ID":48216,"ELEMENT_SET_NO":999,"REV_AT_EPOCH":20785,"BSTAR":0.00071304,"MEAN_MOTION_DOT":2.77e-6,"MEAN_MOTION_DDOT":0},{"OBJECT_NAME":"ONEWEB-0189","OBJECT_ID":"2021-031H","EPOCH":"2025-08-12T01:10:17.575392","MEAN_MOTION":13.14502567,"ECCENTRICITY":0.0001443,"INCLINATION":87.9077,"RA_OF_ASC_NODE":351.2165,"ARG_OF_PERICENTER":93.2279,"MEAN_ANOMALY":266.9016,"EPHEMERIS_TYPE":0,"CLASSIFICATION_TYPE":"U","NORAD_CAT_ID":48217,"ELEMENT_SET_NO":999,"REV_AT_EPOCH":20761,"BSTAR":0.00033587,"MEAN_MOTION_DOT":1.37e-6,"MEAN_MOTION_DDOT":0},{"OBJECT_NAME":"ONEWEB-0196","OBJECT_ID":"2021-031J","EPOCH":"2025-08-12T09:46:22.523232","MEAN_MOTION":13.14503304,"ECCENTRICITY":0.0001666,"INCLINATION":87.9081,"RA_OF_ASC_NODE":351.1586,"ARG_OF_PERICENTER":98.8464,"MEAN_ANOMALY":261.2855,"EPHEMERIS_TYPE":0,"CLASSIFICATION_TYPE":"U","NORAD_CAT_ID":48218,"ELEMENT_SET_NO":999,"REV_AT_EPOCH":20765,"BSTAR":0.00051744,"MEAN_MOTION_DOT":2.05e-6,"MEAN_MOTION_DDOT":0}]
